0 SACI 1
1 25941U 99057B   13282.72620703  .00000228  00000-0  69777-4 0  9301
2 25941 098.6093 156.2513 0008257 020.3145 025.9020 14.50746114740134
0 SACI 1
1 25941U 99057B   13284.12762826  .00000307  00000-0  89964-4 0  9319
2 25941 098.6091 157.6849 0008165 016.0512 145.0912 14.50747036740337
0 SACI 1
1 25941U 99057B   13286.46530242  .00000274  00000-0  81666-4 0  9339
2 25941 098.6086 160.0763 0008014 008.9353 114.0560 14.50748228740676
0 SACI 1
1 25941U 99057B   13287.49915574  .00000323  00000-0  94120-4 0  9343
2 25941 098.6083 161.1339 0007959 005.7325 113.6182 14.50749059740820
0 SACI 1
1 25941U 99057B   13288.66343821  .00000417  00000-0  11793-3 0  9352
2 25941 098.6080 162.3249 0007875 002.1806 074.3295 14.50750690740991
0 SACI 1
1 25941U 99057B   13289.83419509  .00000380  00000-0  10839-3 0  9369
2 25941 098.6078 163.5225 0007797 358.4728 068.9963 14.50752142741163
0 SACI 1
1 25941U 99057B   13291.16414413  .00000360  00000-0  10335-3 0  9377
2 25941 098.6075 164.8830 0007722 354.1647 175.1991 14.50753260741352
0 SACI 1
1 25941U 99057B   13292.46571880  .00000381  00000-0  10885-3 0  9387
2 25941 098.6073 166.2143 0007650 350.0645 133.0960 14.50754074741540
0 SACI 1
1 25941U 99057B   13293.49949227  .00000406  00000-0  11509-3 0  9398
2 25941 098.6073 167.2717 0007604 347.0008 132.1241 14.50755043741691
0 SACI 1
1 25941U 99057B   13294.52333828  .00000390  00000-0  11101-3 0  9409
2 25941 098.6072 168.3188 0007543 343.3977 079.8760 14.50756271741844
0 SACI 1
1 25941U 99057B   13295.62482072  .00000457  00000-0  12809-3 0  9418
2 25941 098.6072 169.4454 0007491 339.7069 072.9588 14.50757003742000
